[{"OBJECT_NAME":"STARLINK-6245","OBJECT_ID":"2023-088AH","EPOCH":"2026-03-09T22:00:01.999584","MEAN_MOTION":15.11050888,"ECCENTRICITY":0.00020399,"INCLINATION":42.9997,"RA_OF_ASC_NODE":93.1432,"ARG_OF_PERICENTER":277.4364,"MEAN_ANOMALY":128.4537,"EPHEMERIS_TYPE":0,"CLASSIFICATION_TYPE":"U","NORAD_CAT_ID":57079,"ELEMENT_SET_NO":999,"REV_AT_EPOCH":572,"BSTAR":0.0036049084,"MEAN_MOTION_DOT":0.00061661,"MEAN_MOTION_DDOT":0},{"OBJECT_NAME":"OBJECT D","OBJECT_ID":"2025-180D","EPOCH":"2026-03-07T14:42:33.383232","MEAN_MOTION":15.14421951,"ECCENTRICITY":0.00131383,"INCLINATION":97.5098,"RA_OF_ASC_NODE":194.941,"ARG_OF_PERICENTER":314.6829,"MEAN_ANOMALY":45.3332,"EPHEMERIS_TYPE":0,"CLASSIFICATION_TYPE":"U","NORAD_CAT_ID":65262,"ELEMENT_SET_NO":999,"REV_AT_EPOCH":3028,"BSTAR":0.00044965302,"MEAN_MOTION_DOT":8.214e-5,"MEAN_MOTION_DDOT":0}]
